GLOBALSTAR M063         
1 26081U 00008A   25047.30789946 -.00000103  00000+0 -29866-3 0  9998
2 26081  51.9956  69.9233 0004933  85.5530 287.3824 11.86165957143237
GLOBALSTAR M062         
1 26082U 00008B   25047.37778765 -.00000093  00000+0  37925-4 0  9996
2 26082  51.9843  91.0448 0007033 210.5486 162.7485 12.43459680481597
GLOBALSTAR M060         
1 26083U 00008C   25047.41476069 -.00000108  00000+0 -17227-3 0  9994
2 26083  52.0037  33.8564 0003048 238.0353 266.3943 12.17655426137650
GLOBALSTAR M064         
1 26084U 00008D   25047.62874575 -.00000100  00000+0 -24565-3 0  9997
2 26084  52.0019 169.3278 0002049 160.1237 199.9675 11.88529766152760
GLOBALSTAR M065         
1 31571U 07020A   25047.59596176 -.00000084  00000+0  10837-3 0  9996
2 31571  51.9868 233.3090 0010976  45.0159 343.0169 12.61992047818186
GLOBALSTAR M069         
1 31573U 07020C   25047.56941564 -.00000080  00000+0  12937-3 0  9999
2 31573  51.9930 196.9117 0001865  88.1298 349.3455 12.47307956819171
GLOBALSTAR M072         
1 31574U 07020D   25047.50485622 -.00000146  00000+0 -84808-3 0  9992
2 31574  52.0178 313.2252 0001635  85.1593  86.1443 11.91776339817075
GLOBALSTAR M071         
1 31576U 07020F   25047.60579971 -.00000052  00000+0  38377-3 0  9991
2 31576  52.0036 208.7122 0000980 145.2991 293.5015 12.18248456480244
